1 44881U 19093C   20265.77890386 -.00000025  00000-0  36731-5 0  9993
2 44881  97.9521 341.1477 0016473  84.1831 276.1249 14.81418976 40951